AMGU-1 (AMURSAT)        
1 44394U 19038J   21359.61229531  .00006810  00000+0  37108-3 0  9990
2 44394  97.6074 323.6695 0021996  17.5314 342.6668 15.14525705136708
DOT-1                   
1 44399U 19038P   21359.50406432  .00004428  00000+0  25071-3 0  9999
2 44399  97.6179 322.7930 0024696  22.3353 337.8947 15.13303093136628
SOKRAT                  
1 44404U 19038U   21359.45446675  .00006882  00000+0  37648-3 0  9992
2 44404  97.6138 323.2269 0021878  20.3123 339.8974 15.14383025136663
LUCKY-7                 
1 44406U 19038W   21359.55411477  .00004324  00000+0  24278-3 0  9991
2 44406  97.6170 323.1241 0024301  14.8390 345.3549 15.13627811136649
D-STAR ONE (EXOCONNECT) 
1 44410U 19038AA  21359.42835347  .00008545  00000+0  45071-3 0  9991
2 44410  97.6104 323.6773 0021332  17.6341 342.5627 15.15613761136708
NARSSCUBE-2             
1 44415U 19022E   21359.22882863  .00005743  00000+0  19418-3 0  9995
2 44415  51.6393 239.2136 0011672 146.5140 213.6582 15.32057683133386
KRAKSAT                 
1 44427U 98067QM  21359.38707588  .00326985  53429-4  80657-3 0  9996
2 44427  51.6325  37.1439 0004325  11.4394 107.9012 15.95462960141584
DUCHIFAT-3              
1 44854U 19089C   21359.48308362  .00002707  00000+0  22024-3 0  9994
2 44854  36.9660  50.6401 0008386 254.6793 105.3063 14.99902428111799
OPS-SAT                 
1 44878U 19092F   21359.49589554  .00005877  00000+0  29715-3 0  9994
2 44878  97.4744 180.3556 0012358 221.6174 138.4120 15.17364459111791
FLORIPASAT-1            
1 44885U 19093G   21359.51200962  .00001281  00000+0  16584-3 0  9994
2 44885  97.9142  77.0135 0015449  43.8184 316.4263 14.82526588109078
HUSKYSAT-1 (HO-107)     
1 45119U 19071J   21359.54633458  .00012586  00000+0  34104-3 0  9992
2 45119  51.6387 189.0422 0010069 257.3530 102.6329 15.37976725106551
G-SAT                   
1 45597U 98067RK  21359.60636153  .00070621  00000+0  62455-3 0  9990
2 45597  51.6368  84.8466 0004111 326.2542  33.8192 15.67979454 94486
QUETZAL-1               
1 45598U 98067RL  21359.49615226  .00126345  00000+0  78400-3 0  9998
2 45598  51.6357  78.8144 0003831 340.4387  19.6465 15.76112081 94484
BY70-2                  
1 45857U 20042B   21359.57692780  .00004161  00000+0  58663-3 0  9993
2 45857  97.9724  73.2867 0009366 321.1243  38.9330 14.77758063 79765
SALSAT                  
1 46495U 20068K   21359.59206768  .00001124  00000+0  86292-4 0  9995
2 46495  97.7103 296.1483 0017042 140.6924 219.5544 15.03723890 68057
NETSAT-4                
1 46504U 20068U   21359.59989220  .00001384  00000+0  10891-3 0  9996
2 46504  97.7079 295.0577 0010436 184.9275 175.1854 15.02440911 67938
NETSAT-3                
1 46505U 20068V   21359.61100666  .00001976  00000+0  15362-3 0  9994
2 46505  97.7078 295.0147 0010147 187.3624 172.7454 15.02424412 67943
NETSAT-1                
1 46506U 20068W   21359.55555584  .00002118  00000+0  16450-3 0  9999
2 46506  97.7068 294.9083 0009423 199.0830 161.0072 15.02387248 67935
NETSAT-2                
1 46507U 20068X   21359.56231124  .00002508  00000+0  19402-3 0  9995
2 46507  97.7070 294.9091 0008876 208.6875 151.3885 15.02369288 67887
BY70-3                  
1 46839U 20079N   21359.51367788  .00014106  00000+0  40707-3 0  9995
2 46839  97.2227  69.6014 0005545 228.9297 256.4792 15.35779205 63508
SPOC                    
1 46921U 98067RR  21359.53471404  .00041789  00000+0  49238-3 0  9997
2 46921  51.6391  99.4284 0001068  54.5787 305.5307 15.60950801 64633
BOBCAT-1                
1 46922U 98067RS  21359.53631638  .00084683  00000+0  77241-3 0  9990
2 46922  51.6406  93.4744 0000988   0.0087   0.0909 15.67151298 64674
NEUTRON-1               
1 46923U 98067RT  21359.56616762  .00042938  00000+0  50778-3 0  9998
2 46923  51.6395  99.6397 0000942  76.4820 283.6279 15.60842619 64661
1998-067RU              
1 46924U 98067RU  21359.44709293  .01144559  73526-3  16410-2 0  9992
2 46924  51.6221  76.0824 0009047   4.7953 355.3144 16.04875712 64937
DESCENT                 
1 46927U 98067RX  21359.56727578  .00044010  00000+0  51757-3 0  9991
2 46927  51.6396  99.6440 0001033 112.3211 247.7892 15.60976885 64576
UVSQ-SAT                
1 47438U 21006AB  21359.13086300  .00003792  00000+0  21325-3 0  9992
2 47438  97.4635  56.7470 0013245 153.3188 206.8728 15.13803143 50899
SOMP2B                  
1 47445U 21006AJ  21358.70446104  .00004149  00000+0  23431-3 0  9991
2 47445  97.4610  56.1230 0012789 158.0731 202.1051 15.13601812 50826
WARP-01                 
1 47924U 98067SA  21359.59509191  .00066671  00000+0  78198-3 0  9996
2 47924  51.6377 105.7973 0002528  96.3859 263.7422 15.60867089 44549
RSP-01                  
1 47925U 98067SB  21359.57742563  .00048049  00000+0  61702-3 0  9999
2 47925  51.6407 107.2032 0001507   3.3094 356.7908 15.58623476 44507
TAUSAT-1                
1 47926U 98067SC  21359.58577475  .00065831  00000+0  76022-3 0  9998
2 47926  51.6391 104.9917 0002327 358.8278   1.2710 15.61277072 44525
TSURU                   
1 47927U 98067SD  21359.57109460  .00041454  00000+0  55212-3 0  9996
2 47927  51.6400 107.9099 0001568   6.5437 353.5575 15.57716324 44492
STARS-EC                
1 47928U 98067SE  21359.58653289  .00075094  00000+0  85610-3 0  9993
2 47928  51.6389 105.7494 0002719 101.6554 258.4745 15.61554905 44504
MAYA-2                  
1 47929U 98067SF  21359.56671892  .00041314  00000+0  55026-3 0  9998
2 47929  51.6400 107.8781 0001673   3.2311 356.8691 15.57717723 44458
HIROGARI (OPUSAT-II)    
1 47930U 98067SG  21359.56478243  .00076950  00000+0  85070-3 0  9991
2 47930  51.6392 104.8666 0002035 337.8723  22.2183 15.62339790 44534
GUARANISAT-1            
1 47931U 98067SH  21359.56277049  .00040824  00000+0  54283-3 0  9996
2 47931  51.6406 107.8577 0001693   3.9303 356.1702 15.57767574 44499
DIY-1 (ARDUIQUBE)       
1 47963U 21022AH  21359.41516563  .00010573  00000+0  67373-3 0  9991
2 47963  97.5445 258.3514 0019703  15.9099 344.2744 15.08759362 40677
